IRIDIUM 63              
1 25286U 98021B   26002.52090565  .00000809  00000+0  26766-3 0  9991
2 25286  86.3982 358.4918 0002164  82.8294 277.3149 14.36756589452463
IRIDIUM 69              
1 25319U 98026A   26002.54378212  .00000832  00000+0  25155-3 0  9990
2 25319  86.3968  11.1407 0004582  87.8364 272.3360 14.41239205451779
IRIDIUM 71              
1 25320U 98026B   26002.52914431  .00000629  00000+0  18823-3 0  9997
2 25320  86.3971   5.8180 0003715 119.2993 240.8578 14.41333906452302
IRIDIUM 73              
1 25344U 98032C   26002.79779964  .00001372  00000+0  33467-3 0  9996
2 25344  86.4423 322.0396 0002796  75.9032 284.2484 14.52026525459521
IRIDIUM 82              
1 25467U 98051A   26002.53431336  .00062641  00000+0  10935-2 0  9993
2 25467  86.3588  10.6223 0055912 250.5016 109.0198 15.48671082454619
